ONEWEB-0012             
1 44057U 19010A   24118.76439639 -.00000061  00000+0 -19280-3 0  9995
2 44057  87.9150  24.1425 0001133 102.4467 257.6791 13.16596370248879
ONEWEB-0010             
1 44058U 19010B   24118.78973219  .00000006  00000+0 -19077-4 0  9998
2 44058  87.9149  24.1164 0001957  99.5523 260.5830 13.16595158248927
ONEWEB-0008             
1 44059U 19010C   24118.81506333  .00000060  00000+0  12307-3 0  9999
2 44059  87.9153  24.1130 0001905  70.8395 289.2942 13.16596933249046
ONEWEB-0007             
1 44060U 19010D   24118.83873819 -.00000046  00000+0 -15623-3 0  9999
2 44060  87.9052  54.4866 0001552  88.9835 271.1473 13.15550044248775
ONEWEB-0006             
1 44061U 19010E   24118.84267913 -.00000130  00000+0 -37995-3 0  9993
2 44061  87.9041  54.4736 0001751  90.1789 269.9542 13.15546370248829
ONEWEB-0011             
1 44062U 19010F   24118.88863866  .00000130  00000+0  31210-3 0  9999
2 44062  87.9043  54.4642 0002108  85.8446 274.2925 13.15551587248826
ONEWEB-0013             
1 45131U 20008A   24118.76367705  .00000306  00000+0  85204-3 0  9991
2 45131  87.8672 209.7244 0001014  99.0351 261.0890 13.09378641203930
ONEWEB-0017             
1 45132U 20008B   24118.70241625 -.00000327  00000+0 -97425-3 0  9991
2 45132  87.8992 191.3945 0002251 107.2342 252.9032 13.10374234205739
